CCSDS_OMM_VERS = 2.0
CREATION_DATE  = 
ORIGINATOR     = 

OBJECT_NAME    = STARLINK-36435
OBJECT_ID      = 2026-016H
CENTER_NAME    = EARTH
REF_FRAME      = TEME
TIME_SYSTEM    = UTC
MEAN_ELEMENT_THEORY = SGP/SGP4

EPOCH          = 2026-02-15T11:09:37.043712
MEAN_MOTION    = 15.80950810
ECCENTRICITY   = .0000647
INCLINATION    = 97.2849
RA_OF_ASC_NODE = 105.8351
ARG_OF_PERICENTER = 278.5626
MEAN_ANOMALY   = 81.5569

EPHEMERIS_TYPE = 0
CLASSIFICATION_TYPE = U
NORAD_CAT_ID   = 67568
ELEMENT_SET_NO = 999
REV_AT_EPOCH   = 330
BSTAR          = .14409E-2
MEAN_MOTION_DOT = .286891E-2
MEAN_MOTION_DDOT = 0

CCSDS_OMM_VERS = 2.0
CREATION_DATE  = 
ORIGINATOR     = 

OBJECT_NAME    = STARLINK-36575
OBJECT_ID      = 2026-016J
CENTER_NAME    = EARTH
REF_FRAME      = TEME
TIME_SYSTEM    = UTC
MEAN_ELEMENT_THEORY = SGP/SGP4

EPOCH          = 2026-02-15T11:07:52.920480
MEAN_MOTION    = 15.80889750
ECCENTRICITY   = .0001172
INCLINATION    = 97.2844
RA_OF_ASC_NODE = 105.8406
ARG_OF_PERICENTER = 99.4259
MEAN_ANOMALY   = 260.7142

EPHEMERIS_TYPE = 0
CLASSIFICATION_TYPE = U
NORAD_CAT_ID   = 67569
ELEMENT_SET_NO = 999
REV_AT_EPOCH   = 330
BSTAR          = .75863E-3
MEAN_MOTION_DOT = .148163E-2
MEAN_MOTION_DDOT = 0

CCSDS_OMM_VERS = 2.0
CREATION_DATE  = 
ORIGINATOR     = 

OBJECT_NAME    = STARLINK-36562
OBJECT_ID      = 2026-016K
CENTER_NAME    = EARTH
REF_FRAME      = TEME
TIME_SYSTEM    = UTC
MEAN_ELEMENT_THEORY = SGP/SGP4

EPOCH          = 2026-02-15T09:35:25.022688
MEAN_MOTION    = 15.80900730
ECCENTRICITY   = .0001357
INCLINATION    = 97.2844
RA_OF_ASC_NODE = 105.7742
ARG_OF_PERICENTER = 79.4888
MEAN_ANOMALY   = 280.6533

EPHEMERIS_TYPE = 0
CLASSIFICATION_TYPE = U
NORAD_CAT_ID   = 67570
ELEMENT_SET_NO = 999
REV_AT_EPOCH   = 329
BSTAR          = .88904E-3
MEAN_MOTION_DOT = .174268E-2
MEAN_MOTION_DDOT = 0

CCSDS_OMM_VERS = 2.0
CREATION_DATE  = 
ORIGINATOR     = 

OBJECT_NAME    = STARLINK-36578
OBJECT_ID      = 2026-016L
CENTER_NAME    = EARTH
REF_FRAME      = TEME
TIME_SYSTEM    = UTC
MEAN_ELEMENT_THEORY = SGP/SGP4

EPOCH          = 2026-02-15T11:36:18.984384
MEAN_MOTION    = 15.75309938
ECCENTRICITY   = .000147
INCLINATION    = 97.2835
RA_OF_ASC_NODE = 105.8124
ARG_OF_PERICENTER = 94.6027
MEAN_ANOMALY   = 265.5406

EPHEMERIS_TYPE = 0
CLASSIFICATION_TYPE = U
NORAD_CAT_ID   = 67571
ELEMENT_SET_NO = 999
REV_AT_EPOCH   = 330
BSTAR          = .21096E-2
MEAN_MOTION_DOT = .328649E-2
MEAN_MOTION_DDOT = 0

CCSDS_OMM_VERS = 2.0
CREATION_DATE  = 
ORIGINATOR     = 

OBJECT_NAME    = STARLINK-36350
OBJECT_ID      = 2026-016M
CENTER_NAME    = EARTH
REF_FRAME      = TEME
TIME_SYSTEM    = UTC
MEAN_ELEMENT_THEORY = SGP/SGP4

EPOCH          = 2026-02-15T11:25:08.185152
MEAN_MOTION    = 15.75262902
ECCENTRICITY   = .0001016
INCLINATION    = 97.2847
RA_OF_ASC_NODE = 105.8208
ARG_OF_PERICENTER = 98.0653
MEAN_ANOMALY   = 262.0727

EPHEMERIS_TYPE = 0
CLASSIFICATION_TYPE = U
NORAD_CAT_ID   = 67572
ELEMENT_SET_NO = 999
REV_AT_EPOCH   = 330
BSTAR          = .11385E-2
MEAN_MOTION_DOT = .173722E-2
MEAN_MOTION_DDOT = 0

CCSDS_OMM_VERS = 2.0
CREATION_DATE  = 
ORIGINATOR     = 

OBJECT_NAME    = STARLINK-36588
OBJECT_ID      = 2026-016N
CENTER_NAME    = EARTH
REF_FRAME      = TEME
TIME_SYSTEM    = UTC
MEAN_ELEMENT_THEORY = SGP/SGP4

EPOCH          = 2026-02-15T11:28:11.100864
MEAN_MOTION    = 15.75275807
ECCENTRICITY   = .0001102
INCLINATION    = 97.2842
RA_OF_ASC_NODE = 105.8191
ARG_OF_PERICENTER = 79.4369
MEAN_ANOMALY   = 280.7020

EPHEMERIS_TYPE = 0
CLASSIFICATION_TYPE = U
NORAD_CAT_ID   = 67573
ELEMENT_SET_NO = 999
REV_AT_EPOCH   = 330
BSTAR          = .13399E-2
MEAN_MOTION_DOT = .205361E-2
MEAN_MOTION_DDOT = 0

CCSDS_OMM_VERS = 2.0
CREATION_DATE  = 
ORIGINATOR     = 

OBJECT_NAME    = STARLINK-36594
OBJECT_ID      = 2026-016P
CENTER_NAME    = EARTH
REF_FRAME      = TEME
TIME_SYSTEM    = UTC
MEAN_ELEMENT_THEORY = SGP/SGP4

EPOCH          = 2026-02-15T10:59:46.802112
MEAN_MOTION    = 15.80912132
ECCENTRICITY   = .0001074
INCLINATION    = 97.2844
RA_OF_ASC_NODE = 105.8459
ARG_OF_PERICENTER = 119.6250
MEAN_ANOMALY   = 240.5126

EPHEMERIS_TYPE = 0
CLASSIFICATION_TYPE = U
NORAD_CAT_ID   = 67574
ELEMENT_SET_NO = 999
REV_AT_EPOCH   = 330
BSTAR          = .92609E-3
MEAN_MOTION_DOT = .181787E-2
MEAN_MOTION_DDOT = 0

CCSDS_OMM_VERS = 2.0
CREATION_DATE  = 
ORIGINATOR     = 

OBJECT_NAME    = STARLINK-36400
OBJECT_ID      = 2026-016Q
CENTER_NAME    = EARTH
REF_FRAME      = TEME
TIME_SYSTEM    = UTC
MEAN_ELEMENT_THEORY = SGP/SGP4

EPOCH          = 2026-02-15T12:00:01.999296
MEAN_MOTION    = 15.75117309
ECCENTRICITY   = .0001416
INCLINATION    = 97.2850
RA_OF_ASC_NODE = 105.8837
ARG_OF_PERICENTER = 59.2983
MEAN_ANOMALY   = 166.1042

EPHEMERIS_TYPE = 0
CLASSIFICATION_TYPE = U
NORAD_CAT_ID   = 67575
ELEMENT_SET_NO = 999
REV_AT_EPOCH   = 442
BSTAR          = .10814E-2
MEAN_MOTION_DOT = .163779E-2
MEAN_MOTION_DDOT = 0

CCSDS_OMM_VERS = 2.0
CREATION_DATE  = 
ORIGINATOR     = 

OBJECT_NAME    = STARLINK-36591
OBJECT_ID      = 2026-016R
CENTER_NAME    = EARTH
REF_FRAME      = TEME
TIME_SYSTEM    = UTC
MEAN_ELEMENT_THEORY = SGP/SGP4

EPOCH          = 2026-02-15T10:56:51.751392
MEAN_MOTION    = 15.80905321
ECCENTRICITY   = .0001569
INCLINATION    = 97.2843
RA_OF_ASC_NODE = 105.8482
ARG_OF_PERICENTER = 79.5198
MEAN_ANOMALY   = 280.6247

EPHEMERIS_TYPE = 0
CLASSIFICATION_TYPE = U
NORAD_CAT_ID   = 67576
ELEMENT_SET_NO = 999
REV_AT_EPOCH   = 330
BSTAR          = .10414E-2
MEAN_MOTION_DOT = .20493E-2
MEAN_MOTION_DDOT = 0

CCSDS_OMM_VERS = 2.0
CREATION_DATE  = 
ORIGINATOR     = 

OBJECT_NAME    = STARLINK-36590
OBJECT_ID      = 2026-016S
CENTER_NAME    = EARTH
REF_FRAME      = TEME
TIME_SYSTEM    = UTC
MEAN_ELEMENT_THEORY = SGP/SGP4

EPOCH          = 2026-02-15T12:00:01.999296
MEAN_MOTION    = 15.75154847
ECCENTRICITY   = .0001146
INCLINATION    = 97.2849
RA_OF_ASC_NODE = 105.8753
ARG_OF_PERICENTER = 81.0070
MEAN_ANOMALY   = 122.4729

EPHEMERIS_TYPE = 0
CLASSIFICATION_TYPE = U
NORAD_CAT_ID   = 67577
ELEMENT_SET_NO = 999
REV_AT_EPOCH   = 448
BSTAR          = .48356E-3
MEAN_MOTION_DOT = .725E-3
MEAN_MOTION_DDOT = 0

CCSDS_OMM_VERS = 2.0
CREATION_DATE  = 
ORIGINATOR     = 

OBJECT_NAME    = STARLINK-36613
OBJECT_ID      = 2026-016T
CENTER_NAME    = EARTH
REF_FRAME      = TEME
TIME_SYSTEM    = UTC
MEAN_ELEMENT_THEORY = SGP/SGP4

EPOCH          = 2026-02-15T10:53:50.044416
MEAN_MOTION    = 15.80949600
ECCENTRICITY   = .0001524
INCLINATION    = 97.2845
RA_OF_ASC_NODE = 105.8509
ARG_OF_PERICENTER = 64.7849
MEAN_ANOMALY   = 295.3577

EPHEMERIS_TYPE = 0
CLASSIFICATION_TYPE = U
NORAD_CAT_ID   = 67578
ELEMENT_SET_NO = 999
REV_AT_EPOCH   = 330
BSTAR          = .15598E-2
MEAN_MOTION_DOT = .31144E-2
MEAN_MOTION_DDOT = 0

CCSDS_OMM_VERS = 2.0
CREATION_DATE  = 
ORIGINATOR     = 

OBJECT_NAME    = STARLINK-36571
OBJECT_ID      = 2026-016U
CENTER_NAME    = EARTH
REF_FRAME      = TEME
TIME_SYSTEM    = UTC
MEAN_ELEMENT_THEORY = SGP/SGP4

EPOCH          = 2026-02-15T05:08:02.662080
MEAN_MOTION    = 15.75275800
ECCENTRICITY   = .00012315
INCLINATION    = 97.2847
RA_OF_ASC_NODE = 105.5657
ARG_OF_PERICENTER = 92.0602
MEAN_ANOMALY   = 268.0805

EPHEMERIS_TYPE = 0
CLASSIFICATION_TYPE = U
NORAD_CAT_ID   = 67579
ELEMENT_SET_NO = 999
REV_AT_EPOCH   = 326
BSTAR          = .15961676E-2
MEAN_MOTION_DOT = .245841E-2
MEAN_MOTION_DDOT = 0

CCSDS_OMM_VERS = 2.0
CREATION_DATE  = 
ORIGINATOR     = 

OBJECT_NAME    = STARLINK-36612
OBJECT_ID      = 2026-016V
CENTER_NAME    = EARTH
REF_FRAME      = TEME
TIME_SYSTEM    = UTC
MEAN_ELEMENT_THEORY = SGP/SGP4

EPOCH          = 2026-02-15T06:16:39.121824
MEAN_MOTION    = 15.80869625
ECCENTRICITY   = .00012241
INCLINATION    = 97.2845
RA_OF_ASC_NODE = 105.6538
ARG_OF_PERICENTER = 67.0451
MEAN_ANOMALY   = 293.0946

EPHEMERIS_TYPE = 0
CLASSIFICATION_TYPE = U
NORAD_CAT_ID   = 67580
ELEMENT_SET_NO = 999
REV_AT_EPOCH   = 327
BSTAR          = .64598519E-3
MEAN_MOTION_DOT = .125699E-2
MEAN_MOTION_DDOT = 0

CCSDS_OMM_VERS = 2.0
CREATION_DATE  = 
ORIGINATOR     = 

OBJECT_NAME    = STARLINK-36632
OBJECT_ID      = 2026-016W
CENTER_NAME    = EARTH
REF_FRAME      = TEME
TIME_SYSTEM    = UTC
MEAN_ELEMENT_THEORY = SGP/SGP4

EPOCH          = 2026-02-15T06:00:02.000160
MEAN_MOTION    = 15.75254160
ECCENTRICITY   = .00012165
INCLINATION    = 97.2847
RA_OF_ASC_NODE = 105.6332
ARG_OF_PERICENTER = 82.2726
MEAN_ANOMALY   = 190.4347

EPHEMERIS_TYPE = 0
CLASSIFICATION_TYPE = U
NORAD_CAT_ID   = 67581
ELEMENT_SET_NO = 999
REV_AT_EPOCH   = 444
BSTAR          = -.84876519E-3
MEAN_MOTION_DOT = -.125237E-2
MEAN_MOTION_DDOT = 0

CCSDS_OMM_VERS = 2.0
CREATION_DATE  = 
ORIGINATOR     = 

OBJECT_NAME    = STARLINK-36609
OBJECT_ID      = 2026-016X
CENTER_NAME    = EARTH
REF_FRAME      = TEME
TIME_SYSTEM    = UTC
MEAN_ELEMENT_THEORY = SGP/SGP4

EPOCH          = 2026-02-15T05:13:38.139456
MEAN_MOTION    = 15.75261861
ECCENTRICITY   = .00012684
INCLINATION    = 97.2849
RA_OF_ASC_NODE = 105.5598
ARG_OF_PERICENTER = 60.6710
MEAN_ANOMALY   = 299.4682

EPHEMERIS_TYPE = 0
CLASSIFICATION_TYPE = U
NORAD_CAT_ID   = 67582
ELEMENT_SET_NO = 999
REV_AT_EPOCH   = 326
BSTAR          = .14101778E-2
MEAN_MOTION_DOT = .216292E-2
MEAN_MOTION_DDOT = 0

